[
{"OBJECT_NAME":"CALSPHERE 1","OBJECT_ID":"1964-063C","EPOCH":"2026-04-01T04:18:32.554944","MEAN_MOTION":13.76527856,"ECCENTRICITY":0.0025937,"INCLINATION":90.2186,"RA_OF_ASC_NODE":69.9651,"ARG_OF_PERICENTER":160.0469,"MEAN_ANOMALY":212.539,"EPHEMERIS_TYPE":0,"CLASSIFICATION_TYPE":"U","NORAD_CAT_ID":900,"ELEMENT_SET_NO":999,"REV_AT_EPOCH":6083,"BSTAR":0.00071679,"MEAN_MOTION_DOT":7.13e-6,"MEAN_MOTION_DDOT":0},
{"OBJECT_NAME":"CALSPHERE 2","OBJECT_ID":"1964-063E","EPOCH":"2026-04-01T04:15:22.615776","MEAN_MOTION":13.52894088,"ECCENTRICITY":0.0020646,"INCLINATION":90.2305,"RA_OF_ASC_NODE":73.9567,"ARG_OF_PERICENTER":90.8583,"MEAN_ANOMALY":282.3911,"EPHEMERIS_TYPE":0,"CLASSIFICATION_TYPE":"U","NORAD_CAT_ID":902,"ELEMENT_SET_NO":999,"REV_AT_EPOCH":84585,"BSTAR":5.3791e-5,"MEAN_MOTION_DOT":4.5e-7,"MEAN_MOTION_DDOT":0},
{"OBJECT_NAME":"LCS 1","OBJECT_ID":"1965-034C","EPOCH":"2026-04-01T03:00:56.457216","MEAN_MOTION":9.89309925,"ECCENTRICITY":0.0013325,"INCLINATION":32.1471,"RA_OF_ASC_NODE":359.9951,"ARG_OF_PERICENTER":209.4678,"MEAN_ANOMALY":150.5069,"EPHEMERIS_TYPE":0,"CLASSIFICATION_TYPE":"U","NORAD_CAT_ID":1361,"ELEMENT_SET_NO":999,"REV_AT_EPOCH":20225,"BSTAR":0.00078563,"MEAN_MOTION_DOT":1.4e-7,"MEAN_MOTION_DDOT":0},
{"OBJECT_NAME":"TEMPSAT 1","OBJECT_ID":"1965-065E","EPOCH":"2026-04-01T02:31:21.491904","MEAN_MOTION":13.33590578,"ECCENTRICITY":0.007155,"INCLINATION":89.9982,"RA_OF_ASC_NODE":212.5808,"ARG_OF_PERICENTER":104.9402,"MEAN_ANOMALY":67.2599,"EPHEMERIS_TYPE":0,"CLASSIFICATION_TYPE":"U","NORAD_CAT_ID":1512,"ELEMENT_SET_NO":999,"REV_AT_EPOCH":94977,"BSTAR":5.8082e-5,"MEAN_MOTION_DOT":3.9e-7,"MEAN_MOTION_DDOT":0},
{"OBJECT_NAME":"CALSPHERE 4A","OBJECT_ID":"1965-065H","EPOCH":"2026-04-01T02:11:06.160128","MEAN_MOTION":13.36263563,"ECCENTRICITY":0.0068233,"INCLINATION":89.8988,"RA_OF_ASC_NODE":123.2559,"ARG_OF_PERICENTER":322.5495,"MEAN_ANOMALY":59.8023,"EPHEMERIS_TYPE":0,"CLASSIFICATION_TYPE":"U","NORAD_CAT_ID":1520,"ELEMENT_SET_NO":999,"REV_AT_EPOCH":95241,"BSTAR":0.00022955,"MEAN_MOTION_DOT":1.28e-6,"MEAN_MOTION_DDOT":0},
{"OBJECT_NAME":"OPS 5712 (P/L 160)","OBJECT_ID":"1967-053A","EPOCH":"2026-04-01T02:58:36.076224","MEAN_MOTION":14.76627291,"ECCENTRICITY":0.0002866,"INCLINATION":69.917,"RA_OF_ASC_NODE":227.0163,"ARG_OF_PERICENTER":218.8621,"MEAN_ANOMALY":141.2321,"EPHEMERIS_TYPE":0,"CLASSIFICATION_TYPE":"U","NORAD_CAT_ID":2826,"ELEMENT_SET_NO":999,"REV_AT_EPOCH":5485,"BSTAR":0.0019567,"MEAN_MOTION_DOT":0.00013643,"MEAN_MOTION_DDOT":0},
{"OBJECT_NAME":"LES-5","OBJECT_ID":"1967-066E","EPOCH":"2026-03-31T23:07:33.064032","MEAN_MOTION":1.09425148,"ECCENTRICITY":0.0055251,"INCLINATION":2.4443,"RA_OF_ASC_NODE":98.6931,"ARG_OF_PERICENTER":210.563,"MEAN_ANOMALY":207.7173,"EPHEMERIS_TYPE":0,"CLASSIFICATION_TYPE":"U","NORAD_CAT_ID":2866,"ELEMENT_SET_NO":999,"REV_AT_EPOCH":13019,"BSTAR":0,"MEAN_MOTION_DOT":-6.3e-7,"MEAN_MOTION_DDOT":0},
{"OBJECT_NAME":"SURCAL 159","OBJECT_ID":"1967-053F","EPOCH":"2026-04-01T04:29:41.233056","MEAN_MOTION":13.99582595,"ECCENTRICITY":0.0008867,"INCLINATION":69.9742,"RA_OF_ASC_NODE":166.6348,"ARG_OF_PERICENTER":230.5231,"MEAN_ANOMALY":129.5093,"EPHEMERIS_TYPE":0,"CLASSIFICATION_TYPE":"U","NORAD_CAT_ID":2872,"ELEMENT_SET_NO":999,"REV_AT_EPOCH":99943,"BSTAR":0.00010554,"MEAN_MOTION_DOT":1.01e-6,"MEAN_MOTION_DDOT":0},
{"OBJECT_NAME":"OPS 5712 (P/L 153)","OBJECT_ID":"1967-053H","EPOCH":"2026-03-31T22:16:40.124352","MEAN_MOTION":13.96816468,"ECCENTRICITY":0.000981,"INCLINATION":69.9724,"RA_OF_ASC_NODE":280.9036,"ARG_OF_PERICENTER":288.7585,"MEAN_ANOMALY":71.2456,"EPHEMERIS_TYPE":0,"CLASSIFICATION_TYPE":"U","NORAD_CAT_ID":2874,"ELEMENT_SET_NO":999,"REV_AT_EPOCH":99599,"BSTAR":8.5791e-5,"MEAN_MOTION_DOT":6.6e-7,"MEAN_MOTION_DDOT":0},
{"OBJECT_NAME":"OPS 3811 (DSP 2)","OBJECT_ID":"1971-039A","EPOCH":"2026-04-01T02:52:38.587584","MEAN_MOTION":0.98160085,"ECCENTRICITY":0.0023187,"INCLINATION":0.2464,"RA_OF_ASC_NODE":15.2253,"ARG_OF_PERICENTER":278.8015,"MEAN_ANOMALY":215.6427,"EPHEMERIS_TYPE":0,"CLASSIFICATION_TYPE":"U","NORAD_CAT_ID":5204,"ELEMENT_SET_NO":999,"REV_AT_EPOCH":20547,"BSTAR":0,"MEAN_MOTION_DOT":-4.3e-7,"MEAN_MOTION_DDOT":0}
]
