CALSPHERE 1             
1 00900U 64063C   26091.17954346  .00000713  00000+0  71679-3 0  9998
2 00900  90.2186  69.9651 0025937 160.0469 212.5390 13.76527856 60834
CALSPHERE 2             
1 00902U 64063E   26091.17734509  .00000045  00000+0  53791-4 0  9991
2 00902  90.2305  73.9567 0020646  90.8583 282.3911 13.52894088845854
LCS 1                   
1 01361U 65034C   26091.12565344  .00000014  00000+0  78563-3 0  9993
2 01361  32.1471 359.9951 0013325 209.4678 150.5069  9.89309925202253
TEMPSAT 1               
1 01512U 65065E   26091.10510986  .00000039  00000+0  58082-4 0  9997
2 01512  89.9982 212.5808 0071550 104.9402  67.2599 13.33590578949778
CALSPHERE 4A            
1 01520U 65065H   26091.09104352  .00000128  00000+0  22955-3 0  9998
2 01520  89.8988 123.2559 0068233 322.5495  59.8023 13.36263563952415
OPS 5712 (P/L 160)      
1 02826U 67053A   26091.12402866  .00013643  00000+0  19567-2 0  9992
2 02826  69.9170 227.0163 0002866 218.8621 141.2321 14.76627291 54854
LES-5                   
1 02866U 67066E   26090.96357713 -.00000063  00000+0  00000+0 0  9993
2 02866   2.4443  98.6931 0055251 210.5630 207.7173  1.09425148130197
SURCAL 159              
1 02872U 67053F   26091.18728279  .00000101  00000+0  10554-3 0  9991
2 02872  69.9742 166.6348 0008867 230.5231 129.5093 13.99582595999436
OPS 5712 (P/L 153)      
1 02874U 67053H   26090.92824218  .00000066  00000+0  85791-4 0  9990
2 02874  69.9724 280.9036 0009810 288.7585  71.2456 13.96816468995997
OPS 3811 (DSP 2)        
1 05204U 71039A   26091.11989106 -.00000043  00000+0  00000+0 0  9990
2 05204   0.2464  15.2253 0023187 278.8015 215.6427  0.98160085205471
